{"type": "FeatureCollection", "features": [ {"type": "Feature", "properties": {"norad_id": 66909, "name": "SILVERSAT", "group": "last-30-days", "lat": 51.30010991201504, "lon": 176.86363139899245, "alt_km": 402.0823732448662, "timestamp": "2025-12-25T14:48:23.571217+00:00", "meta": {"OBJECT_NAME": "SILVERSAT", "OBJECT_ID": "1998-067XV", "EPOCH": "2025-12-24T12:08:54.950784", "MEAN_MOTION": 15.53202951, "ECCENTRICITY": 0.00038249, "INCLINATION": 51.631, "RA_OF_ASC_NODE": 83.8633, "ARG_OF_PERICENTER": 300.8028, "MEAN_ANOMALY": 59.2585, "EPHEMERIS_TYPE": 0, "CLASSIFICATION_TYPE": "U", "NORAD_CAT_ID": 66909, "ELEMENT_SET_NO": 999, "REV_AT_EPOCH": 344, "BSTAR": 0.0011617624, "MEAN_MOTION_DOT": 0.00074602, "MEAN_MOTION_DDOT": 0}, "tle": {"line1": "1 66909U 98067XV  25358.50619156  .00074602  00000+0  11618-2 0  9993", "line2": "2 66909  51.6310  83.8633 0003824 300.8028  59.2585 15.53202951  3445"}}, "geometry": {"type": "Point", "coordinates": [176.86363139899245, 51.30010991201504]}}, {"type": "Feature", "properties": {"norad_id": 66910, "name": "1998-067XW", "group": "last-30-days", "lat": 49.378766391271995, "lon": -169.1577155315659, "alt_km": 402.9444322449099, "timestamp": "2025-12-25T14:48:23.571228+00:00", "meta": {"OBJECT_NAME": "1998-067XW", "OBJECT_ID": "1998-067XW", "EPOCH": "2025-12-25T05:05:39.018624", "MEAN_MOTION": 15.53228929, "ECCENTRICITY": 0.00038368, "INCLINATION": 51.6308, "RA_OF_ASC_NODE": 80.3284, "ARG_OF_PERICENTER": 278.3824, "MEAN_ANOMALY": 81.6731, "EPHEMERIS_TYPE": 0, "CLASSIFICATION_TYPE": "U", "NORAD_CAT_ID": 66910, "ELEMENT_SET_NO": 999, "REV_AT_EPOCH": 355, "BSTAR": 0.0010169127, "MEAN_MOTION_DOT": 0.00065225, "MEAN_MOTION_DDOT": 0}, "tle": {"line1": "1 66910U 98067XW  25359.21225716  .00065225  00000+0  10169-2 0  9990", "line2": "2 66910  51.6308  80.3284 0003836 278.3824  81.6731 15.53228929  3551"}}, "geometry": {"type": "Point", "coordinates": [-169.1577155315659, 49.378766391271995]}}, {"type": "Feature", "properties": {"norad_id": 66911, "name": "1998-067XX", "group": "last-30-days", "lat": 38.87358895816113, "lon": -141.4290314274417, "alt_km": 402.6285606353158, "timestamp": "2025-12-25T14:48:23.571237+00:00", "meta": {"OBJECT_NAME": "1998-067XX", "OBJECT_ID": "1998-067XX", "EPOCH": "2025-12-24T22:49:37.455744", "MEAN_MOTION": 15.53703475, "ECCENTRICITY": 0.00035293, "INCLINATION": 51.6305, "RA_OF_ASC_NODE": 81.585, "ARG_OF_PERICENTER": 283.5602, "MEAN_ANOMALY": 76.4995, "EPHEMERIS_TYPE": 0, "CLASSIFICATION_TYPE": "U", "NORAD_CAT_ID": 66911, "ELEMENT_SET_NO": 999, "REV_AT_EPOCH": 350, "BSTAR": 0.0011925494, "MEAN_MOTION_DOT": 0.00078033, "MEAN_MOTION_DDOT": 0}, "tle": {"line1": "1 66911U 98067XX  25358.95112796  .00078033  00000+0  11925-2 0  9996", "line2": "2 66911  51.6305  81.5850 0003529 283.5602  76.4995 15.53703475  3505"}}, "geometry": {"type": "Point", "coordinates": [-141.4290314274417, 38.87358895816113]}}, {"type": "Feature", "properties": {"norad_id": 66912, "name": "1998-067XY", "group": "last-30-days", "lat": 38.14895799263385, "lon": 116.90664771968294, "alt_km": 405.7720074921226, "timestamp": "2025-12-25T14:48:23.571245+00:00", "meta": {"OBJECT_NAME": "1998-067XY", "OBJECT_ID": "1998-067XY", "EPOCH": "2025-12-25T05:18:48.744000", "MEAN_MOTION": 15.52348997, "ECCENTRICITY": 0.00038732, "INCLINATION": 51.632, "RA_OF_ASC_NODE": 80.3904, "ARG_OF_PERICENTER": 295.0134, "MEAN_ANOMALY": 65.0453, "EPHEMERIS_TYPE": 0, "CLASSIFICATION_TYPE": "U", "NORAD_CAT_ID": 66912, "ELEMENT_SET_NO": 999, "REV_AT_EPOCH": 354, "BSTAR": 0.00084033216, "MEAN_MOTION_DOT": 0.00052036, "MEAN_MOTION_DDOT": 0}, "tle": {"line1": "1 66912U 98067XY  25359.22139750  .00052036  00000+0  84033-3 0  9993", "line2": "2 66912  51.6320  80.3904 0003873 295.0134  65.0453 15.52348997  3540"}}, "geometry": {"type": "Point", "coordinates": [116.90664771968294, 38.14895799263385]}}, {"type": "Feature", "properties": {"norad_id": 66913, "name": "2025-284A", "group": "last-30-days", "lat": -55.27567941543868, "lon": 99.47150513811157, "alt_km": 540.7122832050391, "timestamp": "2025-12-25T14:48:23.571254+00:00", "meta": {"OBJECT_NAME": "2025-284A", "OBJECT_ID": "2025-284A", "EPOCH": "2025-12-23T02:34:46.438752", "MEAN_MOTION": 15.08893564, "ECCENTRICITY": 0.0013475, "INCLINATION": 80.4035, "RA_OF_ASC_NODE": 116.7336, "ARG_OF_PERICENTER": 259.6514, "MEAN_ANOMALY": 100.3189, "EPHEMERIS_TYPE": 0, "CLASSIFICATION_TYPE": "U", "NORAD_CAT_ID": 66913, "ELEMENT_SET_NO": 999, "REV_AT_EPOCH": 269, "BSTAR": 0.00055263602, "MEAN_MOTION_DOT": 8.748e-05, "MEAN_MOTION_DDOT": 0}, "tle": {"line1": "1 66913U 25284A   25357.10748193  .00008748  00000+0  55264-3 0  9992", "line2": "2 66913  80.4035 116.7336 0013475 259.6514 100.3189 15.08893564  2694"}}, "geometry": {"type": "Point", "coordinates": [99.47150513811157, -55.27567941543868]}}, {"type": "Feature", "properties": {"norad_id": 66914, "name": "2025-284B", "group": "last-30-days", "lat": -58.07199843261621, "lon": -50.8045110654792, "alt_km": 510.88989629532443, "timestamp": "2025-12-25T14:48:23.571264+00:00", "meta": {"OBJECT_NAME": "2025-284B", "OBJECT_ID": "2025-284B", "EPOCH": "2025-12-16T06:51:11.417184", "MEAN_MOTION": 15.18985981, "ECCENTRICITY": 0.00081793, "INCLINATION": 80.4045, "RA_OF_ASC_NODE": 125.2713, "ARG_OF_PERICENTER": 234.9626, "MEAN_ANOMALY": 125.0834, "EPHEMERIS_TYPE": 0, "CLASSIFICATION_TYPE": "U", "NORAD_CAT_ID": 66914, "ELEMENT_SET_NO": 999, "REV_AT_EPOCH": 166, "BSTAR": 0.00038444995, "MEAN_MOTION_DOT": 8.068e-05, "MEAN_MOTION_DDOT": 0}, "tle": {"line1": "1 66914U 25284B   25350.28554881  .00008068  00000+0  38445-3 0  9991", "line2": "2 66914  80.4045 125.2713 0008179 234.9626 125.0834 15.18985981  1668"}}, "geometry": {"type": "Point", "coordinates": [-50.8045110654792, -58.07199843261621]}}, {"type": "Feature", "properties": {"norad_id": 66915, "name": "HULIANWANG DIGUI-105", "group": "last-30-days", "lat": 26.423542077508298, "lon": -139.81897157942555, "alt_km": 883.4311933862255, "timestamp": "2025-12-25T14:48:23.571273+00:00", "meta": {"OBJECT_NAME": "HULIANWANG DIGUI-105", "OBJECT_ID": "2025-285A", "EPOCH": "2025-12-25T07:17:12.989184", "MEAN_MOTION": 14.0371992, "ECCENTRICITY": 0.00081194, "INCLINATION": 50.0055, "RA_OF_ASC_NODE": 66.1116, "ARG_OF_PERICENTER": 324.6615, "MEAN_ANOMALY": 35.375, "EPHEMERIS_TYPE": 0, "CLASSIFICATION_TYPE": "U", "NORAD_CAT_ID": 66915, "ELEMENT_SET_NO": 999, "REV_AT_EPOCH": 267, "BSTAR": 0.00012125035, "MEAN_MOTION_DOT": 4e-07, "MEAN_MOTION_DDOT": 0}, "tle": {"line1": "1 66915U 25285A   25359.30362256  .00000040  00000+0  12125-3 0  9997", "line2": "2 66915  50.0055  66.1116 0008119 324.6615  35.3750 14.03719920  2675"}}, "geometry": {"type": "Point", "coordinates": [-139.81897157942555, 26.423542077508298]}}, {"type": "Feature", "properties": {"norad_id": 66916, "name": "HULIANWANG DIGUI-106", "group": "last-30-days", "lat": 16.03627029132272, "lon": -129.15101823202895, "alt_km": 883.9400200324462, "timestamp": "2025-12-25T14:48:23.571283+00:00", "meta": {"OBJECT_NAME": "HULIANWANG DIGUI-106", "OBJECT_ID": "2025-285B", "EPOCH": "2025-12-25T07:13:06.708576", "MEAN_MOTION": 14.03704707, "ECCENTRICITY": 0.00069078, "INCLINATION": 50.0065, "RA_OF_ASC_NODE": 66.0988, "ARG_OF_PERICENTER": 317.9337, "MEAN_ANOMALY": 42.1037, "EPHEMERIS_TYPE": 0, "CLASSIFICATION_TYPE": "U", "NORAD_CAT_ID": 66916, "ELEMENT_SET_NO": 999, "REV_AT_EPOCH": 267, "BSTAR": 0.00010976817, "MEAN_MOTION_DOT": 2.2e-07, "MEAN_MOTION_DDOT": 0}, "tle": {"line1": "1 66916U 25285B   25359.30077209  .00000022  00000+0  10977-3 0  9992", "line2": "2 66916  50.0065  66.0988 0006907 317.9337  42.1037 14.03704707  2673"}}, "geometry": {"type": "Point", "coordinates": [-129.15101823202895, 16.03627029132272]}}, {"type": "Feature", "properties": {"norad_id": 66917, "name": "HULIANWANG DIGUI-107", "group": "last-30-days", "lat": 9.5384927347405, "lon": -123.32294934541332, "alt_km": 885.5173883968428, "timestamp": "2025-12-25T14:48:23.571292+00:00", "meta": {"OBJECT_NAME": "HULIANWANG DIGUI-107", "OBJECT_ID": "2025-285C", "EPOCH": "2025-12-25T07:10:38.371872", "MEAN_MOTION": 14.03664742, "ECCENTRICITY": 0.00075536, "INCLINATION": 50.0031, "RA_OF_ASC_NODE": 66.0816, "ARG_OF_PERICENTER": 327.3277, "MEAN_ANOMALY": 32.716, "EPHEMERIS_TYPE": 0, "CLASSIFICATION_TYPE": "U", "NORAD_CAT_ID": 66917, "ELEMENT_SET_NO": 999, "REV_AT_EPOCH": 267, "BSTAR": 0.00010943427, "MEAN_MOTION_DOT": 2.2e-07, "MEAN_MOTION_DDOT": 0}, "tle": {"line1": "1 66917U 25285C   25359.29905523  .00000022  00000+0  10943-3 0  9993", "line2": "2 66917  50.0031  66.0816 0007553 327.3277  32.7160 14.03664742  2679"}}, "geometry": {"type": "Point", "coordinates": [-123.32294934541332, 9.5384927347405]}}, {"type": "Feature", "properties": {"norad_id": 66918, "name": "HULIANWANG DIGUI-108", "group": "last-30-days", "lat": 7.364966397159467, "lon": -121.44262823264232, "alt_km": 885.165735573064, "timestamp": "2025-12-25T14:48:23.571301+00:00", "meta": {"OBJECT_NAME": "HULIANWANG DIGUI-108", "OBJECT_ID": "2025-285D", "EPOCH": "2025-12-25T07:09:48.182112", "MEAN_MOTION": 14.03603859, "ECCENTRICITY": 0.00066781, "INCLINATION": 50.0063, "RA_OF_ASC_NODE": 66.0833, "ARG_OF_PERICENTER": 321.9063, "MEAN_ANOMALY": 38.1368, "EPHEMERIS_TYPE": 0, "CLASSIFICATION_TYPE": "U", "NORAD_CAT_ID": 66918, "ELEMENT_SET_NO": 999, "REV_AT_EPOCH": 267, "BSTAR": 0.00011626576, "MEAN_MOTION_DOT": 3.2e-07, "MEAN_MOTION_DDOT": 0}, "tle": {"line1": "1 66918U 25285D   25359.29847433  .00000032  00000+0  11627-3 0  9990", "line2": "2 66918  50.0063  66.0833 0006678 321.9063  38.1368 14.03603859  2676"}}, "geometry": {"type": "Point", "coordinates": [-121.44262823264232, 7.364966397159467]}}]}